IRIDIUM 7 [-]           
1 24793U 97020B   24115.12557884  .00001091  00000+0  37523-3 0  9999
2 24793  86.3995 352.4774 0002430  85.7946 274.3527 14.35173107411993
IRIDIUM 5 [-]           
1 24795U 97020D   24114.92963927  .00012825  00000+0  12421-2 0  9993
2 24795  86.3880 275.7876 0122712 194.2347 165.5412 14.87047090423002
IRIDIUM 4 [-]           
1 24796U 97020E   24114.74914400  .00001101  00000+0  37196-3 0  9998
2 24796  86.3987 349.7928 0002302  91.0065 269.1396 14.36094452412259
IRIDIUM 914 [-]         
1 24836U 97030A   24115.13391892  .00001347  00000+0  42226-3 0  9994
2 24836  86.3978 359.4593 0003201 121.3304 238.8209 14.39945211408906
IRIDIUM 16 [-]          
1 24841U 97030F   24115.23943103  .00001463  00000+0  47901-3 0  9993
2 24841  86.4087  21.2393 0003204  44.7485 315.3970 14.37838950407046
IRIDIUM 911 [-]         
1 24842U 97030G   24115.28061728  .00001860  00000+0  51118-3 0  9999
2 24842  86.4516  20.3952 0016327  58.7121 301.5678 14.46457088414484
IRIDIUM 17 [-]          
1 24870U 97034B   24114.89601133  .00001616  00000+0  53986-3 0  9994
2 24870  86.3981  50.9847 0001449  41.4593 318.6714 14.36926163403351
IRIDIUM 920 [-]         
1 24871U 97034C   24114.83633146  .00001485  00000+0  45915-3 0  9995
2 24871  86.4021  31.2195 0012815  34.2017 326.0006 14.40649369406182
